[{"OBJECT_NAME":"STARLINK-5808","OBJECT_ID":"2023-083BD","EPOCH":"2026-03-09T22:00:01.999584","MEAN_MOTION":15.14004269,"ECCENTRICITY":0.00016373,"INCLINATION":42.9994,"RA_OF_ASC_NODE":337.5456,"ARG_OF_PERICENTER":220.5285,"MEAN_ANOMALY":42.6839,"EPHEMERIS_TYPE":0,"CLASSIFICATION_TYPE":"U","NORAD_CAT_ID":56927,"ELEMENT_SET_NO":999,"REV_AT_EPOCH":563,"BSTAR":0.0028761116,"MEAN_MOTION_DOT":0.00053329,"MEAN_MOTION_DDOT":0},{"OBJECT_NAME":"CONNECTA IOT-15","OBJECT_ID":"2026-004AR","EPOCH":"2026-03-09T22:41:01.256352","MEAN_MOTION":15.16609971,"ECCENTRICITY":0.00018664,"INCLINATION":97.4573,"RA_OF_ASC_NODE":69.3558,"ARG_OF_PERICENTER":342.2914,"MEAN_ANOMALY":17.8254,"EPHEMERIS_TYPE":0,"CLASSIFICATION_TYPE":"U","NORAD_CAT_ID":67402,"ELEMENT_SET_NO":999,"REV_AT_EPOCH":868,"BSTAR":0.00024313202,"MEAN_MOTION_DOT":4.685e-5,"MEAN_MOTION_DDOT":0}]
